{"_default": { "22": {"norad_id": "40012", "name": "UNISAT 6", "tle1": "1 40012U 14033C   26164.90602484  .00003245  00000-0  35060-3 0  9991", "tle2": "2 40012  97.7870 317.6758 0046344  79.8423 280.8016 14.88231131645673", "object_type": "PAYLOAD", "criticality_score": 9.0, "last_updated": "2026-06-14T08:16:17.656748+00:00", "maneuver_count": 0, "owner": "N/A"}, "23": {"norad_id": "39492", "name": "AIST 1", "tle1": "1 39492U 13078C   26164.88268744  .00001282  00000-0  11162-3 0  9999", "tle2": "2 39492  82.4160 274.0749 0015356 290.8473  69.1104 14.96063154674755", "object_type": "PAYLOAD", "criticality_score": 9.0, "last_updated": "2026-06-14T08:16:17.656748+00:00", "maneuver_count": 0, "owner": "N/A"}, "24": {"norad_id": "39445", "name": "HINCUBE", "tle1": "1 39445U 13066AF  26164.90168709  .00006160  00000-0  39742-3 0  9991", "tle2": "2 39445  97.7966 133.3750 0031779 219.1404 140.7525 15.08247464679031", "object_type": "PAYLOAD", "criticality_score": 9.0, "last_updated": "2026-06-14T08:16:17.656748+00:00", "maneuver_count": 0, "owner": "N/A"}, "25": {"norad_id": "39444", "name": "FUNCUBE 1", "tle1": "1 39444U 13066AE  26164.87461990  .00007372  00000-0  45803-3 0  9995", "tle2": "2 39444  97.8267 136.2511 0035377 212.6416 147.2626 15.09452478679163", "object_type": "PAYLOAD", "criticality_score": 9.0, "last_updated": "2026-06-14T08:16:17.656748+00:00", "maneuver_count": 0, "owner": "N/A"}, "54": {"norad_id": "40014", "name": "BUGSAT 1", "tle1": "1 40014U 14033E   26164.93313530  .00006082  00000-0  32159-3 0  9995", "tle2": "2 40014  98.0428 257.2912 0027747 189.6693 170.4007 15.15552750655347", "object_type": "PAYLOAD", "criticality_score": 9.0, "last_updated": "2026-06-14T08:16:17.656748+00:00", "maneuver_count": 0, "owner": "N/A"}, "56": {"norad_id": "39446", "name": "UWE-3", "tle1": "1 39446U 13066AG  26164.80677422  .00004526  00000-0  38955-3 0  9997", "tle2": "2 39446  97.8688 120.8577 0048115 332.4032  27.4636 14.96999955677071", "object_type": "PAYLOAD", "criticality_score": 9.0, "last_updated": "2026-06-14T08:16:17.656748+00:00", "maneuver_count": 0, "owner": "N/A"}, "87": {"norad_id": "39440", "name": "CUBEBUG 2", "tle1": "1 39440U 13066AA  26164.84782956  .00004574  00000-0  42317-3 0  9994", "tle2": "2 39440  97.8902 113.8118 0058639  39.7873 320.7624 14.93736485676494", "object_type": "PAYLOAD", "criticality_score": 9.0, "last_updated": "2026-06-14T08:16:17.656748+00:00", "maneuver_count": 0, "owner": "N/A"}, "88": {"norad_id": "39430", "name": "GOMX 1", "tle1": "1 39430U 13066Q   26164.91747219  .00002271  00000-0  34412-3 0  9993", "tle2": "2 39430  97.6487   5.5875 0130204  87.9333 273.6778 14.69450187669438", "object_type": "PAYLOAD", "criticality_score": 9.0, "last_updated": "2026-06-14T08:16:17.656748+00:00", "maneuver_count": 0, "owner": "N/A"}, "111": {"norad_id": "39441", "name": "NEE 02 KRYSAOR", "tle1": "1 39441U 13066AB  26164.30532468  .00002401  00000-0  26597-3 0  9996", "tle2": "2 39441  97.8891 103.5477 0067726  82.6389 278.2517 14.86602186675626", "object_type": "PAYLOAD", "criticality_score": 9.0, "last_updated": "2026-06-14T08:16:17.656748+00:00", "maneuver_count": 0, "owner": "N/A"}, "112": {"norad_id": "39438", "name": "VELOX-P 2", "tle1": "1 39438U 13066Y   26164.81816603  .00004093  00000-0  38808-3 0  9991", "tle2": "2 39438  97.8743 116.1782 0052673 356.1726   3.9083 14.93094405677334", "object_type": "PAYLOAD", "criticality_score": 9.0, "last_updated": "2026-06-14T08:16:17.656748+00:00", "maneuver_count": 0, "owner": "N/A"}, "113": {"norad_id": "39432", "name": "ICUBE 1", "tle1": "1 39432U 13066S   26164.91382027  .00014523  00000-0  56919-3 0  9996", "tle2": "2 39432  97.5682 150.5401 0015498 350.4950   9.5993 15.25771189683917", "object_type": "PAYLOAD", "criticality_score": 9.0, "last_updated": "2026-06-14T08:16:17.656748+00:00", "maneuver_count": 0, "owner": "N/A"}, "114": {"norad_id": "39431", "name": "BRITE-PL", "tle1": "1 39431U 13066R   26164.88366648  .00000358  00000-0  80780-4 0  9997", "tle2": "2 39431  97.7960 277.4554 0190377  21.9257 338.9949 14.51367874663452", "object_type": "PAYLOAD", "criticality_score": 9.0, "last_updated": "2026-06-14T08:16:17.656748+00:00", "maneuver_count": 0, "owner": "N/A"}, "115": {"norad_id": "39428", "name": "DELFI-N3XT", "tle1": "1 39428U 13066N   26164.83149658  .00005026  00000-0  44050-3 0  9994", "tle2": "2 39428  97.8343  85.1465 0073453 217.0735 142.5399 14.95050817674121", "object_type": "PAYLOAD", "criticality_score": 9.0, "last_updated": "2026-06-14T08:16:17.656748+00:00", "maneuver_count": 0, "owner": "N/A"}, "116": {"norad_id": "39426", "name": "CINEMA 3", "tle1": "1 39426U 13066L   26164.69066661  .00000988  00000-0  13461-3 0  9992", "tle2": "2 39426  97.8406  76.9769 0088798 222.9684 136.4569 14.78292262673932", "object_type": "PAYLOAD", "criticality_score": 9.0, "last_updated": "2026-06-14T08:16:17.656748+00:00", "maneuver_count": 0, "owner": "N/A"}, "143": {"norad_id": "39427", "name": "TRITON 1", "tle1": "1 39427U 13066M   26164.98657353  .00002666  00000-0  32322-3 0  9991", "tle2": "2 39427  97.8255  74.8667 0088363 244.5062 114.6991 14.81698808673619", "object_type": "PAYLOAD", "criticality_score": 9.0, "last_updated": "2026-06-14T08:16:17.656748+00:00", "maneuver_count": 0, "owner": "N/A"}, "200": {"norad_id": "39471", "name": "IPEX", "tle1": "1 39471U 13072K   26164.92372761  .00006270  00000-0  31383-3 0  9999", "tle2": "2 39471 120.4655 286.0481 0164206 358.9540   1.1171 15.08061255114742", "object_type": "PAYLOAD", "criticality_score": 9.0, "last_updated": "2026-06-14T08:16:17.656748+00:00", "maneuver_count": 0, "owner": "N/A"}, "271": {"norad_id": "39731", "name": "KAZEOSAT 1", "tle1": "1 39731U 14024A   26164.89938509 -.00000031  00000-0  36511-5 0  9990", "tle2": "2 39731  98.3212 237.4281 0001392  74.2070 285.9274 14.42077989638085", "object_type": "PAYLOAD", "criticality_score": 9.0, "last_updated": "2026-06-14T08:16:17.656748+00:00", "maneuver_count": 0, "owner": "N/A"}, "273": {"norad_id": "40020", "name": "BRITE TORONTO", "tle1": "1 40020U 14033L   26164.91233455  .00000658  00000-0  10669-3 0  9992", "tle2": "2 40020  97.9734 293.9007 0077282 287.6929  71.5853 14.72672671641739", "object_type": "PAYLOAD", "criticality_score": 9.0, "last_updated": "2026-06-14T08:16:17.656748+00:00", "maneuver_count": 0, "owner": "N/A"}, "315": {"norad_id": "39765", "name": "COSMOS 2499", "tle1": "1 39765U 14028E   26164.92546670  .00000023  00000-0  46021-4 0  9995", "tle2": "2 39765  82.4496 254.6291 0231515   9.5950 350.9461 12.82902505564602", "object_type": "PAYLOAD", "criticality_score": 9.0, "last_updated": "2026-06-14T08:16:17.656748+00:00", "maneuver_count": 0, "owner": "N/A"}, "316": {"norad_id": "40016", "name": "SAUDISAT 4", "tle1": "1 40016U 14033G   26164.94026254  .00000644  00000-0  91410-4 0  9996", "tle2": "2 40016  97.7578 311.1873 0046230  84.2348 276.4132 14.79540858645599", "object_type": "PAYLOAD", "criticality_score": 9.0, "last_updated": "2026-06-14T08:16:17.656748+00:00", "maneuver_count": 0, "owner": "N/A"}, "372": {"norad_id": "40018", "name": "APRIZESAT 9", "tle1": "1 40018U 14033J   26164.94963153  .00000632  00000-0  10025-3 0  9995", "tle2": "2 40018  97.9056 298.2274 0065455 209.6629 150.0862 14.74210615643088", "object_type": "PAYLOAD", "criticality_score": 9.0, "last_updated": "2026-06-14T08:16:17.656748+00:00", "maneuver_count": 0, "owner": "N/A"}, "420": {"norad_id": "40011", "name": "HODOYOSHI 4", "tle1": "1 40011U 14033B   26164.94102427  .00002152  00000-0  23835-3 0  9999", "tle2": "2 40011  97.5450 349.9209 0022684 319.8415  40.1125 14.88124702648320", "object_type": "PAYLOAD", "criticality_score": 9.0, "last_updated": "2026-06-14T08:16:17.656748+00:00", "maneuver_count": 0, "owner": "N/A"}, "595": {"norad_id": "39483", "name": "COSMOS 2488", "tle1": "1 39483U 13076A   26164.97898025  .00000165  00000-0  11178-2 0  9993", "tle2": "2 39483  82.4828 170.6936 0020823 101.8855 258.4561 12.42906297565498", "object_type": "PAYLOAD", "criticality_score": 9.0, "last_updated": "2026-06-14T08:16:17.656748+00:00", "maneuver_count": 0, "owner": "N/A"}, "596": {"norad_id": "39484", "name": "COSMOS 2489", "tle1": "1 39484U 13076B   26164.95411322  .00000039  00000-0  20694-3 0  9997", "tle2": "2 39484  82.4865 172.0867 0022653 101.9567 258.4054 12.42879627565542", "object_type": "PAYLOAD", "criticality_score": 9.0, "last_updated": "2026-06-14T08:16:17.656748+00:00", "maneuver_count": 0, "owner": "N/A"}, "597": {"norad_id": "39485", "name": "COSMOS 2490", "tle1": "1 39485U 13076C   26164.92599765  .00000069  00000-0  42543-3 0  9993", "tle2": "2 39485  82.4811 170.1731 0022672 116.8993 243.4407 12.42878365565478", "object_type": "PAYLOAD", "criticality_score": 9.0, "last_updated": "2026-06-14T08:16:17.656748+00:00", "maneuver_count": 0, "owner": "N/A"}, "598": {"norad_id": "39763", "name": "COSMOS 2498", "tle1": "1 39763U 14028C   26164.91717446  .00000002  00000-0 -57948-4 0  9991", "tle2": "2 39763  82.4450 110.9558 0022604  80.4522 279.9110 12.42980167547147", "object_type": "PAYLOAD", "criticality_score": 9.0, "last_updated": "2026-06-14T08:16:17.656748+00:00", "maneuver_count": 0, "owner": "N/A"}, "599": {"norad_id": "39762", "name": "COSMOS 2497", "tle1": "1 39762U 14028B   26164.93934822  .00000012  00000-0  16648-4 0  9993", "tle2": "2 39762  82.4489 112.4533 0021879  80.7676 279.5877 12.42894127547117", "object_type": "PAYLOAD", "criticality_score": 9.0, "last_updated": "2026-06-14T08:16:17.656748+00:00", "maneuver_count": 0, "owner": "N/A"}, "600": {"norad_id": "39761", "name": "COSMOS 2496", "tle1": "1 39761U 14028A   26164.96402612  .00000045  00000-0  25608-3 0  9993", "tle2": "2 39761  82.4442 110.7494 0021315  85.4321 274.9193 12.42878642547110", "object_type": "PAYLOAD", "criticality_score": 9.0, "last_updated": "2026-06-14T08:16:17.656748+00:00", "maneuver_count": 0, "owner": "N/A"}, "665": {"norad_id": "40013", "name": "DEIMOS 2", "tle1": "1 40013U 14033D   26164.90071222  .00000936  00000-0  93621-4 0  9994", "tle2": "2 40013  97.5843  39.5058 0001754  49.4031 310.7342 14.93717096637232", "object_type": "PAYLOAD", "criticality_score": 9.0, "last_updated": "2026-06-14T08:16:17.656748+00:00", "maneuver_count": 0, "owner": "N/A"}}}