OBJECT_NAME,OBJECT_ID,EPOCH,MEAN_MOTION,ECCENTRICITY,INCLINATION,RA_OF_ASC_NODE,ARG_OF_PERICENTER,MEAN_ANOMALY,EPHEMERIS_TYPE,CLASSIFICATION_TYPE,NORAD_CAT_ID,ELEMENT_SET_NO,REV_AT_EPOCH,BSTAR,MEAN_MOTION_DOT,MEAN_MOTION_DDOT
CINEMA-3 (KHUSAT-2),2013-066L,2026-06-13T16:34:33.595104,14.78292262,.0088798,97.8406,76.9769,222.9684,136.4569,0,U,39426,999,67393,.13461418E-3,.988E-5,0
TRITON-1,2013-066M,2026-06-13T23:40:39.952992,14.81698808,.00883633,97.8255,74.8667,244.5062,114.6991,0,U,39427,999,67361,.32321551E-3,.2666E-4,0
DELFI-N3XT,2013-066N,2026-06-13T19:57:21.304512,14.95050817,.00734527,97.8343,85.1465,217.0735,142.5399,0,U,39428,999,67412,.44049602E-3,.5026E-4,0
GOMX-1,2013-066Q,2026-06-13T22:01:09.597216,14.69450187,.01302042,97.6487,5.5875,87.9333,273.6778,0,U,39430,999,66943,.34411955E-3,.2271E-4,0
BRITE-PL1 (LEM),2013-066R,2026-06-13T21:12:28.783872,14.51367874,.01903771,97.7960,277.4554,21.9257,338.9949,0,U,39431,999,66345,.80780268E-4,.358E-5,0
ICUBE-1,2013-066S,2026-06-13T21:55:54.071328,15.25771189,.00154981,97.5682,150.5401,350.4950,9.5993,0,U,39432,999,68391,.56919025E-3,.14523E-3,0
VELOX-PII,2013-066Y,2026-06-13T19:38:09.544992,14.93094405,.0052673,97.8743,116.1782,356.1726,3.9083,0,U,39438,999,67733,.38807949E-3,.4093E-4,0
CUBEBUG-2 (LO-74),2013-066AA,2026-06-13T20:20:52.473984,14.93736485,.00586391,97.8902,113.8118,39.7873,320.7624,0,U,39440,999,67649,.42317108E-3,.4574E-4,0
NEE-02 KRYSAOR,2013-066AB,2026-06-13T07:19:40.052352,14.86602186,.00677256,97.8891,103.5477,82.6389,278.2517,0,U,39441,999,67562,.26596765E-3,.2401E-4,0
FUNCUBE-1 (AO-73),2013-066AE,2026-06-13T20:59:27.159360,15.09452478,.00353773,97.8267,136.2511,212.6416,147.2626,0,U,39444,999,67916,.45803274E-3,.7372E-4,0
HINCUBE,2013-066AF,2026-06-13T21:38:25.764576,15.08247464,.00317788,97.7966,133.3750,219.1404,140.7525,0,U,39445,999,67903,.39742017E-3,.616E-4,0
UWE-3,2013-066AG,2026-06-13T19:21:45.292608,14.96999955,.00481152,97.8688,120.8577,332.4032,27.4636,0,U,39446,999,67707,.38954975E-3,.4526E-4,0
CP8 (IPEX),2013-072K,2026-06-13T22:10:10.065504,15.08061255,.01642057,120.4655,286.0481,358.9540,1.1171,0,U,39471,999,11474,.31383493E-3,.627E-4,0
COSMOS 2488 (RODNIK-S 7),2013-076A,2026-06-13T23:29:43.893600,12.42906297,.00208231,82.4828,170.6936,101.8855,258.4561,0,U,39483,999,56549,.11177893E-2,.165E-5,0
COSMOS 2489 (RODNIK-S 8),2013-076B,2026-06-13T22:53:55.382208,12.42879627,.00226532,82.4865,172.0867,101.9567,258.4054,0,U,39484,999,56554,.20694282E-3,.39E-6,0
COSMOS 2490 (RODNIK-S 9),2013-076C,2026-06-13T22:13:26.196960,12.42878365,.00226722,82.4811,170.1731,116.8993,243.4407,0,U,39485,999,56547,.42543426E-3,.69E-6,0
AIST-1 (RS41),2013-078C,2026-06-13T21:11:04.194816,14.96063154,.00153558,82.4160,274.0749,290.8473,69.1104,0,U,39492,999,67475,.11162392E-3,.1282E-4,0
KAZEOSAT 1,2014-024A,2026-06-13T21:35:06.871776,14.42077989,.00013919,98.3212,237.4281,74.2070,285.9274,0,U,39731,999,63808,.3651111E-5,-.31E-6,0
COSMOS 2496 (RODNIK-S 10),2014-028A,2026-06-13T23:08:11.856768,12.42878642,.00213151,82.4442,110.7494,85.4321,274.9193,0,U,39761,999,54711,.25608349E-3,.45E-6,0
COSMOS 2497 (RODNIK-S 11),2014-028B,2026-06-13T22:32:39.686208,12.42894127,.00218794,82.4489,112.4533,80.7676,279.5877,0,U,39762,999,54711,.1664838E-4,.12E-6,0
COSMOS 2498 (RODNIK-S 12),2014-028C,2026-06-13T22:00:43.873344,12.42980167,.00226044,82.4450,110.9558,80.4522,279.9110,0,U,39763,999,54714,-.57948384E-4,.2E-7,0
COSMOS 2499 (RS47),2014-028E,2026-06-13T22:12:40.322880,12.82902505,.02315149,82.4496,254.6291,9.5950,350.9461,0,U,39765,999,56460,.46021377E-4,.23E-6,0
HODOYOSHI-4,2014-033B,2026-06-13T22:35:04.496928,14.88124702,.00226836,97.5450,349.9209,319.8415,40.1125,0,U,40011,999,64832,.23835423E-3,.2152E-4,0
UNISAT-6,2014-033C,2026-06-13T21:44:40.546176,14.88231131,.00463436,97.7870,317.6758,79.8423,280.8016,0,U,40012,999,64567,.35059703E-3,.3245E-4,0
DEIMOS-2,2014-033D,2026-06-13T21:37:01.535808,14.93717096,.00017535,97.5843,39.5058,49.4031,310.7342,0,U,40013,999,63723,.93620901E-4,.936E-5,0
BUGSAT-1 (TITA),2014-033E,2026-06-13T22:23:42.889920,15.15552750,.00277475,98.0428,257.2912,189.6693,170.4007,0,U,40014,999,65534,.32159438E-3,.6082E-4,0
SAUDISAT 4,2014-033G,2026-06-13T22:33:58.683456,14.79540858,.004623,97.7578,311.1873,84.2348,276.4132,0,U,40016,999,64559,.91409854E-4,.644E-5,0
APRIZESAT 9,2014-033J,2026-06-13T22:47:28.164192,14.74210615,.00654547,97.9056,298.2274,209.6629,150.0862,0,U,40018,999,64308,.10024556E-3,.632E-5,0
BRITE-CA1 (TORONTO),2014-033L,2026-06-13T21:53:45.705120,14.72672671,.00772816,97.9734,293.9007,287.6929,71.5853,0,U,40020,999,64173,.10668759E-3,.658E-5,0
